[{"OBJECT_NAME":"STARLINK-35898","OBJECT_ID":"2025-280F","EPOCH":"2026-03-09T21:57:09.540000","MEAN_MOTION":14.98331395,"ECCENTRICITY":0.00023614,"INCLINATION":70.0019,"RA_OF_ASC_NODE":333.7246,"ARG_OF_PERICENTER":270.0315,"MEAN_ANOMALY":90.0573,"EPHEMERIS_TYPE":0,"CLASSIFICATION_TYPE":"U","NORAD_CAT_ID":66826,"ELEMENT_SET_NO":999,"REV_AT_EPOCH":1611,"BSTAR":0.00051675737,"MEAN_MOTION_DOT":6.078e-5,"MEAN_MOTION_DDOT":0},{"OBJECT_NAME":"CZ-4B DEB","OBJECT_ID":"1999-057SZ","EPOCH":"2026-03-02T21:23:50.470368","MEAN_MOTION":14.9551257,"ECCENTRICITY":0.0057647,"INCLINATION":98.7518,"RA_OF_ASC_NODE":85.7766,"ARG_OF_PERICENTER":19.8773,"MEAN_ANOMALY":340.4672,"EPHEMERIS_TYPE":0,"CLASSIFICATION_TYPE":"U","NORAD_CAT_ID":39052,"ELEMENT_SET_NO":999,"REV_AT_EPOCH":72291,"BSTAR":0.0001718,"MEAN_MOTION_DOT":1.891e-5,"MEAN_MOTION_DDOT":0}]
